*******************************************************************************
 Revised: April 22, 2021              Neptune                               899
 
 PHYSICAL DATA (update 2021-May-03):
  Mass x10^24 (kg)      = 102.409         Density (g/cm^3)       =  1.638
  Equat. radius (1 bar) = 24766+-15 km    Volume, 10^10 km^3     = 6254     
  Vol. mean radius (km) = 24624+-21       Polar radius (km)      = 24342+-30
  Geometric Albedo      = 0.41            Flattening             =  0.0171
  Sid. rot. period (III)= 16.11+-0.01 hr  Sid. rot. rate (rad/s) =  0.000108338 
  Mean solar day, h     =~16.11 h         
  GM (km^3/s^2)         = 6835099.97      GM 1-sigma (km^3/s^2)  = +-10 
  Equ. grav, ge (m/s^2) = 11.15           Pol. grav, gp (m/s^2)  = 11.41+-0.03
  Visual magnitude V(1,0)= -6.87
  Vis. mag. (opposition)=  +7.84          Obliquity to orbit     = 28.32 deg
  Sidereal orbit period = 164.788501027 y Sidereal orbit period  = 60189 d
  Mean daily motion     = 0.006020076dg/d Mean orbit velocity    =  5.43 km/s 
  Atmos. temp. (1 bar)  =  72+-2 K        Escape speed (1 bar)  =  23.5 km/s     
  Aroche(ice)/Rp        =  2.98           Hill's sphere rad., Rp = 4700
                                 Perihelion  Aphelion    Mean
  Solar Constant (W/m^2)         1.54        1.49        1.51
  Maximum Planetary IR (W/m^2)   0.52        0.52        0.52
  Minimum Planetary IR (W/m^2)   0.52        0.52        0.52
*******************************************************************************
 
 
*******************************************************************************
Ephemeris / WWW_USER Sat Sep  4 23:23:55 2021 Pasadena, USA      / Horizons    
*******************************************************************************
Target body name: Neptune (899)                   {source: nep097}
Center body name: Earth (399)                     {source: DE441}
Center-site name: GEOCENTRIC
*******************************************************************************
Start time      : A.D. 2000-Jan-01 00:00:00.0000 UT      
Stop  time      : A.D. 2099-Dec-31 00:00:00.0000 UT      
Step-size       : 1440 minutes
*******************************************************************************
Target pole/equ : IAU_NEPTUNE                     {West-longitude positive}
Target radii    : 24764.0 x 24764.0 x 24341.0 km  {Equator, meridian, pole}    
Center geodetic : 0.00000000,0.00000000,0.0000000 {E-lon(deg),Lat(deg),Alt(km)}
Center cylindric: 0.00000000,0.00000000,0.0000000 {E-lon(deg),Dxy(km),Dz(km)}
Center pole/equ : High-precision EOP model        {East-longitude positive}
Center radii    : 6378.1 x 6378.1 x 6356.8 km     {Equator, meridian, pole}    
Target primary  : Sun
Vis. interferer : MOON (R_eq= 1737.400) km        {source: DE441}
Rel. light bend : Sun, EARTH                      {source: DE441}
Rel. lght bnd GM: 1.3271E+11, 3.9860E+05 km^3/s^2                              
Atmos refraction: NO (AIRLESS)
RA format       : HMS
Time format     : CAL 
EOP file        : eop.210903.p211127                                           
EOP coverage    : DATA-BASED 1962-JAN-20 TO 2021-SEP-03. PREDICTS-> 2021-NOV-26
Units conversion: 1 au= 149597870.700 km, c= 299792.458 km/s, 1 day= 86400.0 s 
Table cut-offs 1: Elevation (-90.0deg=NO ),Airmass (>38.000=NO), Daylight (NO )
Table cut-offs 2: Solar elongation (  0.0,180.0=NO ),Local Hour Angle( 0.0=NO )
Table cut-offs 3: RA/DEC angular rate (     0.0=NO )                           
****************************************************************************************************************
 Date__(UT)__HR:MN     R.A._____(ICRF)_____DEC   APmag   S-brt            delta      deldot    S-O-T /r    S-T-O
****************************************************************************************************************
$$SOE
 2024-Sep-09 00:00     23 56 34.84 -01 48 48.4   7.684   9.285 28.9116195904915  -5.7180900 167.8974 /L   0.4109
 2024-Sep-10 00:00     23 56 28.92 -01 49 28.0   7.683   9.285 28.9084635818647  -5.2106982 168.8894 /L   0.3781
 2024-Sep-11 00:00     23 56 22.97 -01 50 07.7   7.683   9.285 28.9056008750768  -4.7025081 169.8807 /L   0.3452
 2024-Sep-12 00:00     23 56 17.00 -01 50 47.5   7.683   9.285 28.9030318499550  -4.1936544 170.8708 /L   0.3122
 2024-Sep-13 00:00     23 56 11.00 -01 51 27.4   7.683   9.285 28.9007570304007  -3.6835934 171.8590 /L   0.2793
 2024-Sep-14 00:00     23 56 04.99 -01 52 07.3   7.683   9.285 28.8987772669738  -3.1718847 172.8445 /L   0.2463
 2024-Sep-15 00:00     23 55 58.95 -01 52 47.4   7.682   9.285 28.8970934602040  -2.6588435 173.8256 /L   0.2135
 2024-Sep-16 00:00     23 55 52.91 -01 53 27.4   7.682   9.285 28.8957061307926  -2.1453659 174.7995 /L   0.1808
 2024-Sep-17 00:00     23 55 46.85 -01 54 07.5   7.682   9.285 28.8946153099911  -1.6321007 175.7610 /L   0.1484
 2024-Sep-18 00:00     23 55 40.78 -01 54 47.6   7.682   9.285 28.8938208963794  -1.1188164 176.6986 /L   0.1167
 2024-Sep-19 00:00     23 55 34.70 -01 55 27.7   7.682   9.285 28.8933231428836  -0.6046302 177.5836 /L   0.0865
 2024-Sep-20 00:00     23 55 28.62 -01 56 07.8   7.682   9.285 28.8931227964133  -0.0888707 178.3295 /L   0.0602
 2024-Sep-21 00:00     23 55 22.53 -01 56 47.9   7.682   9.285 28.8932207590539   0.4282864 178.6741 /L   0.0451
 2024-Sep-22 00:00     23 55 16.44 -01 57 27.9   7.682   9.285 28.8936176202368   0.9460435 178.3431 /T   0.0521
 2024-Sep-23 00:00     23 55 10.35 -01 58 07.9   7.682   9.285 28.8943135267193   1.4638089 177.6010 /T   0.0753
 2024-Sep-24 00:00     23 55 04.26 -01 58 47.8   7.682   9.285 28.8953084941810   1.9817503 176.7148 /T   0.1044
 2024-Sep-25 00:00     23 54 58.18 -01 59 27.6   7.682   9.285 28.8966028009028   2.5004947 175.7739 /T   0.1357
 2024-Sep-26 00:00     23 54 52.11 -02 00 07.3   7.682   9.285 28.8981970210969   3.0203012 174.8076 /T   0.1678
 2024-Sep-27 00:00     23 54 46.05 -02 00 46.8   7.683   9.285 28.9000916357798   3.5405747 173.8275 /T   0.2004
 2024-Sep-28 00:00     23 54 39.99 -02 01 26.3   7.683   9.285 28.9022866058831   4.0602353 172.8390 /T   0.2332
 2024-Sep-29 00:00     23 54 33.96 -02 02 05.6   7.683   9.285 28.9047813382499   4.5785780 171.8450 /T   0.2661
 2024-Sep-30 00:00     23 54 27.94 -02 02 44.7   7.683   9.285 28.9075750730822   5.0957358 170.8472 /T   0.2991
 2024-Oct-01 00:00     23 54 21.94 -02 03 23.7   7.683   9.285 28.9106672868177   5.6122643 169.8465 /T   0.3321
 2024-Oct-02 00:00     23 54 15.96 -02 04 02.4   7.684   9.285 28.9140576908595   6.1282895 168.8436 /T   0.3650
 2024-Oct-03 00:00     23 54 10.01 -02 04 40.9   7.684   9.285 28.9177458265197   6.6431036 167.8390 /T   0.3978
 2024-Oct-04 00:00     23 54 04.09 -02 05 19.2   7.684   9.285 28.9217306769083   7.1556205 166.8329 /T   0.4306
 2024-Oct-05 00:00     23 53 58.19 -02 05 57.3   7.685   9.285 28.9260106989564   7.6652297 165.8256 /T   0.4632
 2024-Oct-06 00:00     23 53 52.33 -02 06 35.1   7.685   9.285 28.9305842441332   8.1721612 164.8172 /T   0.4957
 2024-Oct-07 00:00     23 53 46.50 -02 07 12.6   7.685   9.285 28.9354499342819   8.6769811 163.8080 /T   0.5281
 2024-Oct-08 00:00     23 53 40.71 -02 07 49.8   7.686   9.285 28.9406066067168   9.1797466 162.7981 /T   0.5603
 2024-Oct-09 00:00     23 53 34.96 -02 08 26.7   7.686   9.285 28.9460528897590   9.6797011 161.7874 /T   0.5923
 2024-Oct-10 00:00     23 53 29.26 -02 09 03.2   7.686   9.285 28.9517868557261  10.1758208 160.7762 /T   0.6241
 2024-Oct-11 00:00     23 53 23.59 -02 09 39.5   7.687   9.285 28.9578061182845  10.6676559 159.7644 /T   0.6558
 2024-Oct-12 00:00     23 53 17.97 -02 10 15.4   7.687   9.285 28.9641082831025  11.1555969 158.7522 /T   0.6872
 2024-Oct-13 00:00     23 53 12.40 -02 10 50.9   7.688   9.285 28.9706912988355  11.6402994 157.7395 /T   0.7184
 2024-Oct-14 00:00     23 53 06.89 -02 11 26.0   7.688   9.285 28.9775533649896  12.1218729 156.7263 /T   0.7494
 2024-Oct-15 00:00     23 53 01.42 -02 12 00.7   7.689   9.285 28.9846925182802  12.5996893 155.7128 /T   0.7802
 2024-Oct-16 00:00     23 52 56.01 -02 12 35.0   7.689   9.285 28.9921063583935  13.0730095 154.6989 /T   0.8107
 2024-Oct-17 00:00     23 52 50.66 -02 13 09.0   7.690   9.285 28.9997922287100  13.5417772 153.6846 /T   0.8409
 2024-Oct-18 00:00     23 52 45.36 -02 13 42.4   7.691   9.285 29.0077476883145  14.0067341 152.6699 /T   0.8709
 2024-Oct-19 00:00     23 52 40.13 -02 14 15.5   7.691   9.285 29.0159707964560  14.4687140 151.6549 /T   0.9006
 2024-Oct-20 00:00     23 52 34.96 -02 14 48.0   7.692   9.285 29.0244599095544  14.9278164 150.6395 /T   0.9300
 2024-Oct-21 00:00     23 52 29.85 -02 15 20.2   7.693   9.285 29.0332131790354  15.3832953 149.6236 /T   0.9592
 2024-Oct-22 00:00     23 52 24.81 -02 15 51.8   7.693   9.285 29.0422282379512  15.8342568 148.6074 /T   0.9880
 2024-Oct-23 00:00     23 52 19.84 -02 16 22.9   7.694   9.285 29.0515023636313  16.2804501 147.5909 /T   1.0165
 2024-Oct-24 00:00     23 52 14.94 -02 16 53.6   7.695   9.285 29.0610329118746  16.7223315 146.5740 /T   1.0447
 2024-Oct-25 00:00     23 52 10.11 -02 17 23.7   7.695   9.285 29.0708175452980  17.1603584 145.5567 /T   1.0725
 2024-Oct-26 00:00     23 52 05.36 -02 17 53.3   7.696   9.285 29.0808540029785  17.5942615 144.5391 /T   1.1000
 2024-Oct-27 00:00     23 52 00.69 -02 18 22.3   7.697   9.285 29.0911396424285  18.0230668 143.5212 /T   1.1272
 2024-Oct-28 00:00     23 51 56.09 -02 18 50.8   7.698   9.285 29.1016712274943  18.4458433 142.5030 /T   1.1540
 2024-Oct-29 00:00     23 51 51.58 -02 19 18.7   7.698   9.285 29.1124451836981  18.8624164 141.4846 /T   1.1804
 2024-Oct-30 00:00     23 51 47.15 -02 19 46.0   7.699   9.285 29.1234580583742  19.2732980 140.4659 /T   1.2064
 2024-Oct-31 00:00     23 51 42.80 -02 20 12.8   7.700   9.285 29.1347067105603  19.6789082 139.4471 /T   1.2321
 2024-Nov-01 00:00     23 51 38.54 -02 20 38.9   7.701   9.285 29.1461880362284  20.0788964 138.4280 /T   1.2573
